LYNK TOWER 5            
1 59121U 24043Z   26068.92489786  .00009048  00000+0  31902-3 0  9994
2 59121  97.5458 204.7305 0010406 234.6422 125.3846 15.29454506111860
STARLINK-31620          
1 59460U 24068F   26068.30324934 -.00000582  00000+0 -11633-4 0  9998
2 59460  43.0037  33.2379 0001087 268.8316  91.2411 15.27579794108508
